ENTRYSAT                
1 44429U 98067QP  20002.85792281  .00006783  00000-0  10755-3 0  9994
2 44429  51.6406  87.8231 0003084  67.6126 292.5191 15.54658617 28578
VCC C                   
1 44430U 98067QQ  20002.65478108  .00008567  00000-0  13226-3 0  9991
2 44430  51.6411  88.7202 0003141  74.9180 285.2158 15.55008575 27371
VCC B                   
1 44431U 98067QR  20001.66007041  .00006307  00000-0  10203-3 0  9998
2 44431  51.6415  94.0756 0003505  72.2296 287.9077 15.54241105 28325
DUCHIFAT-3              
1 44854U 19089C   20002.70072288  .00000212  00000-0  23597-4 0  9995
2 44854  36.9687   3.7303 0007418 155.8459 204.2630 14.98940062  3260
